CONNECTA IOT-11
1 64557U 25135AF  25322.24682144  .00007697  00000+0  36389-3 0  9998
2 64557  97.4579  74.7058 0002246  54.9658 305.1788 15.19666372 22813
